{"fetched_at":"2026-07-16T17:46:03.568Z","source":"https://celestrak.org/NORAD/elements/gp.php?GROUP=kuiper&FORMAT=JSON","constellation":"kuiper","records":[{"OBJECT_NAME":"KUIPER-00549","OBJECT_ID":"2026-140AA","EPOCH":"2026-07-15T09:48:41.425056","CLASSIFICATION_TYPE":"U","MEAN_MOTION":15.37336482,"ECCENTRICITY":0.00079397,"INCLINATION":51.8779,"RA_OF_ASC_NODE":262.367,"ARG_OF_PERICENTER":16.4596,"MEAN_ANOMALY":343.6647,"EPHEMERIS_TYPE":0,"NORAD_CAT_ID":69616,"ELEMENT_SET_NO":999,"REV_AT_EPOCH":557,"BSTAR":0.00021107221,"MEAN_MOTION_DOT":0.00007464,"MEAN_MOTION_DDOT":0},{"OBJECT_NAME":"KUIPER-00550","OBJECT_ID":"2026-140AB","EPOCH":"2026-07-16T04:13:43.468320","CLASSIFICATION_TYPE":"U","MEAN_MOTION":15.32007135,"ECCENTRICITY":0.00077042,"INCLINATION":51.8789,"RA_OF_ASC_NODE":259.2458,"ARG_OF_PERICENTER":62.385,"MEAN_ANOMALY":297.7916,"EPHEMERIS_TYPE":0,"NORAD_CAT_ID":69617,"ELEMENT_SET_NO":999,"REV_AT_EPOCH":568,"BSTAR":-0.00051351822,"MEAN_MOTION_DOT":-0.00016456,"MEAN_MOTION_DDOT":0},{"OBJECT_NAME":"KUIPER-00551","OBJECT_ID":"2026-140AC","EPOCH":"2026-07-16T03:50:46.781088","CLASSIFICATION_TYPE":"U","MEAN_MOTION":15.38269447,"ECCENTRICITY":0.00123557,"INCLINATION":51.8766,"RA_OF_ASC_NODE":258.4104,"ARG_OF_PERICENTER":282.6843,"MEAN_ANOMALY":77.2763,"EPHEMERIS_TYPE":0,"NORAD_CAT_ID":69618,"ELEMENT_SET_NO":999,"REV_AT_EPOCH":569,"BSTAR":0.00035939253,"MEAN_MOTION_DOT":0.00013424,"MEAN_MOTION_DDOT":0},{"OBJECT_NAME":"KUIPER-00554","OBJECT_ID":"2026-140AD","EPOCH":"2026-07-16T03:59:18.436704","CLASSIFICATION_TYPE":"U","MEAN_MOTION":15.38008185,"ECCENTRICITY":0.00105321,"INCLINATION":51.8779,"RA_OF_ASC_NODE":258.4492,"ARG_OF_PERICENTER":294.7161,"MEAN_ANOMALY":65.2729,"EPHEMERIS_TYPE":0,"NORAD_CAT_ID":69619,"ELEMENT_SET_NO":999,"REV_AT_EPOCH":569,"BSTAR":0.00056102572,"MEAN_MOTION_DOT":0.00021006,"MEAN_MOTION_DDOT":0},{"OBJECT_NAME":"KUIPER-00555","OBJECT_ID":"2026-140AE","EPOCH":"2026-07-16T06:00:02.000160","CLASSIFICATION_TYPE":"U","MEAN_MOTION":15.379953,"ECCENTRICITY":0.00113053,"INCLINATION":51.8812,"RA_OF_ASC_NODE":258.0224,"ARG_OF_PERICENTER":283.1675,"MEAN_ANOMALY":196.0414,"EPHEMERIS_TYPE":0,"NORAD_CAT_ID":69620,"ELEMENT_SET_NO":999,"REV_AT_EPOCH":517,"BSTAR":-0.00020704473,"MEAN_MOTION_DOT":-0.0000827,"MEAN_MOTION_DDOT":0},{"OBJECT_NAME":"KUIPER-00556","OBJECT_ID":"2026-140AF","EPOCH":"2026-07-15T12:17:57.859872","CLASSIFICATION_TYPE":"U","MEAN_MOTION":15.38342895,"ECCENTRICITY":0.0011978,"INCLINATION":51.8798,"RA_OF_ASC_NODE":261.5737,"ARG_OF_PERICENTER":269.447,"MEAN_ANOMALY":90.5145,"EPHEMERIS_TYPE":0,"NORAD_CAT_ID":69621,"ELEMENT_SET_NO":999,"REV_AT_EPOCH":559,"BSTAR":0.00038112,"MEAN_MOTION_DOT":0.00014294,"MEAN_MOTION_DDOT":0},{"OBJECT_NAME":"KUIPER-00557","OBJECT_ID":"2026-140AG","EPOCH":"2026-07-15T09:25:01.552512","CLASSIFICATION_TYPE":"U","MEAN_MOTION":15.37532137,"ECCENTRICITY":0.00097305,"INCLINATION":51.8799,"RA_OF_ASC_NODE":262.2684,"ARG_OF_PERICENTER":300.5398,"MEAN_ANOMALY":59.4628,"EPHEMERIS_TYPE":0,"NORAD_CAT_ID":69622,"ELEMENT_SET_NO":999,"REV_AT_EPOCH":557,"BSTAR":0.00034484619,"MEAN_MOTION_DOT":0.00012541,"MEAN_MOTION_DDOT":0},{"OBJECT_NAME":"KUIPER-00560","OBJECT_ID":"2026-140AH","EPOCH":"2026-07-16T06:00:02.000160","CLASSIFICATION_TYPE":"U","MEAN_MOTION":15.37019051,"ECCENTRICITY":0.00091635,"INCLINATION":51.8783,"RA_OF_ASC_NODE":258.0113,"ARG_OF_PERICENTER":315.9187,"MEAN_ANOMALY":164.193,"EPHEMERIS_TYPE":0,"NORAD_CAT_ID":69623,"ELEMENT_SET_NO":999,"REV_AT_EPOCH":528,"BSTAR":-0.00022759863,"MEAN_MOTION_DOT":-0.00008769,"MEAN_MOTION_DDOT":0},{"OBJECT_NAME":"KUIPER-00561","OBJECT_ID":"2026-140AJ","EPOCH":"2026-07-15T10:47:34.639872","CLASSIFICATION_TYPE":"U","MEAN_MOTION":15.38731571,"ECCENTRICITY":0.00081738,"INCLINATION":51.8811,"RA_OF_ASC_NODE":261.9079,"ARG_OF_PERICENTER":307.9079,"MEAN_ANOMALY":52.1169,"EPHEMERIS_TYPE":0,"NORAD_CAT_ID":69624,"ELEMENT_SET_NO":999,"REV_AT_EPOCH":558,"BSTAR":0.00023456096,"MEAN_MOTION_DOT":0.0000874,"MEAN_MOTION_DDOT":0},{"OBJECT_NAME":"KUIPER-00564","OBJECT_ID":"2026-140AK","EPOCH":"2026-07-15T12:27:59.572800","CLASSIFICATION_TYPE":"U","MEAN_MOTION":15.37214015,"ECCENTRICITY":0.000923,"INCLINATION":51.879,"RA_OF_ASC_NODE":261.6212,"ARG_OF_PERICENTER":303.111,"MEAN_ANOMALY":56.899,"EPHEMERIS_TYPE":0,"NORAD_CAT_ID":69625,"ELEMENT_SET_NO":999,"REV_AT_EPOCH":559,"BSTAR":0.0004022,"MEAN_MOTION_DOT":0.00014541,"MEAN_MOTION_DDOT":0},{"OBJECT_NAME":"KUIPER-00567","OBJECT_ID":"2026-140AL","EPOCH":"2026-07-16T06:00:02.000160","CLASSIFICATION_TYPE":"U","MEAN_MOTION":15.38325777,"ECCENTRICITY":0.00128675,"INCLINATION":51.8768,"RA_OF_ASC_NODE":257.9654,"ARG_OF_PERICENTER":273.5077,"MEAN_ANOMALY":228.1515,"EPHEMERIS_TYPE":0,"NORAD_CAT_ID":69626,"ELEMENT_SET_NO":999,"REV_AT_EPOCH":568,"BSTAR":-0.0001409907,"MEAN_MOTION_DOT":-0.00005826,"MEAN_MOTION_DDOT":0},{"OBJECT_NAME":"KUIPER-00573","OBJECT_ID":"2026-140AM","EPOCH":"2026-07-15T11:04:07.897728","CLASSIFICATION_TYPE":"U","MEAN_MOTION":15.37486142,"ECCENTRICITY":0.0009393,"INCLINATION":51.8775,"RA_OF_ASC_NODE":261.9707,"ARG_OF_PERICENTER":287.3188,"MEAN_ANOMALY":72.6771,"EPHEMERIS_TYPE":0,"NORAD_CAT_ID":69627,"ELEMENT_SET_NO":999,"REV_AT_EPOCH":558,"BSTAR":0.00037413004,"MEAN_MOTION_DOT":0.00013619,"MEAN_MOTION_DDOT":0},{"OBJECT_NAME":"KUIPER-00258","OBJECT_ID":"2026-151A","EPOCH":"2026-07-16T07:24:12.648672","CLASSIFICATION_TYPE":"U","MEAN_MOTION":15.35085482,"ECCENTRICITY":0.00116295,"INCLINATION":51.8671,"RA_OF_ASC_NODE":175.1896,"ARG_OF_PERICENTER":171.1522,"MEAN_ANOMALY":188.9671,"EPHEMERIS_TYPE":0,"NORAD_CAT_ID":69763,"ELEMENT_SET_NO":999,"REV_AT_EPOCH":218,"BSTAR":-0.0061822822,"MEAN_MOTION_DOT":-0.00208857,"MEAN_MOTION_DDOT":0},{"OBJECT_NAME":"KUIPER-00526","OBJECT_ID":"2026-151B","EPOCH":"2026-07-16T07:00:43.408512","CLASSIFICATION_TYPE":"U","MEAN_MOTION":15.37331925,"ECCENTRICITY":0.00064374,"INCLINATION":51.8753,"RA_OF_ASC_NODE":175.0888,"ARG_OF_PERICENTER":145.4645,"MEAN_ANOMALY":214.6761,"EPHEMERIS_TYPE":0,"NORAD_CAT_ID":69764,"ELEMENT_SET_NO":999,"REV_AT_EPOCH":218,"BSTAR":0.00029312056,"MEAN_MOTION_DOT":0.00010519,"MEAN_MOTION_DDOT":0},{"OBJECT_NAME":"KUIPER-00558","OBJECT_ID":"2026-151C","EPOCH":"2026-07-16T05:34:03.275904","CLASSIFICATION_TYPE":"U","MEAN_MOTION":15.35730104,"ECCENTRICITY":0.00078179,"INCLINATION":51.875,"RA_OF_ASC_NODE":175.4342,"ARG_OF_PERICENTER":157.0087,"MEAN_ANOMALY":203.125,"EPHEMERIS_TYPE":0,"NORAD_CAT_ID":69765,"ELEMENT_SET_NO":999,"REV_AT_EPOCH":217,"BSTAR":-0.010809465,"MEAN_MOTION_DOT":-0.00364566,"MEAN_MOTION_DDOT":0},{"OBJECT_NAME":"KUIPER-00569","OBJECT_ID":"2026-151D","EPOCH":"2026-07-16T06:58:27.438240","CLASSIFICATION_TYPE":"U","MEAN_MOTION":15.37349731,"ECCENTRICITY":0.00052678,"INCLINATION":51.8783,"RA_OF_ASC_NODE":175.0802,"ARG_OF_PERICENTER":141.3377,"MEAN_ANOMALY":218.7988,"EPHEMERIS_TYPE":0,"NORAD_CAT_ID":69766,"ELEMENT_SET_NO":999,"REV_AT_EPOCH":218,"BSTAR":-0.0017115758,"MEAN_MOTION_DOT":-0.00063528,"MEAN_MOTION_DDOT":0}]}
