KUIPER-00549            
1 69616U 26140AA  26196.40881279  .00007464  00000+0  21107-3 0  9998
2 69616  51.8779 262.3670 0007939  16.4596 343.6647 15.37336482  5574
KUIPER-00550            
1 69617U 26140AB  26197.17619755 -.00016456  00000+0 -51352-3 0  9990
2 69617  51.8789 259.2458 0007704  62.3850 297.7916 15.32007135  5683
KUIPER-00551            
1 69618U 26140AC  26197.16026367  .00013424  00000+0  35939-3 0  9994
2 69618  51.8766 258.4104 0012355 282.6843  77.2763 15.38269447  5699
KUIPER-00554            
1 69619U 26140AD  26197.16618561  .00021006  00000+0  56103-3 0  9999
2 69619  51.8779 258.4492 0010532 294.7161  65.2729 15.38008185  5695
KUIPER-00555            
1 69620U 26140AE  26197.25002315 -.00008270  00000+0 -20704-3 0  9993
2 69620  51.8812 258.0224 0011305 283.1675 196.0414 15.37995300  5175
KUIPER-00556            
1 69621U 26140AF  26196.51247523  .00014294  00000+0  38112-3 0  9997
2 69621  51.8798 261.5737 0011978 269.4470  90.5145 15.38342895  5594
KUIPER-00557            
1 69622U 26140AG  26196.39237908  .00012541  00000+0  34485-3 0  9992
2 69622  51.8799 262.2684 0009730 300.5398  59.4628 15.37532137  5571
KUIPER-00560            
1 69623U 26140AH  26197.25002315 -.00008769  00000+0 -22760-3 0  9993
2 69623  51.8783 258.0113 0009163 315.9187 164.1930 15.37019051  5284
KUIPER-00561            
1 69624U 26140AJ  26196.44970648  .00008740  00000+0  23456-3 0  9997
2 69624  51.8811 261.9079 0008173 307.9079  52.1169 15.38731571  5584
KUIPER-00564            
1 69625U 26140AK  26196.51943950  .00014541  00000+0  40220-3 0  9996
2 69625  51.8790 261.6212 0009230 303.1110  56.8990 15.37214015  5598
KUIPER-00567            
1 69626U 26140AL  26197.25002315 -.00005826  00000+0 -14099-3 0  9993
2 69626  51.8768 257.9654 0012867 273.5077 228.1515 15.38325777  5680
KUIPER-00573            
1 69627U 26140AM  26196.46120252  .00013619  00000+0  37413-3 0  9999
2 69627  51.8775 261.9707 0009393 287.3188  72.6771 15.37486142  5587
KUIPER-00258            
1 69763U 26151A   26197.30847973 -.00208857  00000+0 -61823-2 0  9995
2 69763  51.8671 175.1896 0011629 171.1522 188.9671 15.35085482  2188
KUIPER-00526            
1 69764U 26151B   26197.29216908  .00010519  00000+0  29312-3 0  9994
2 69764  51.8753 175.0888 0006437 145.4645 214.6761 15.37331925  2186
KUIPER-00558            
1 69765U 26151C   26197.23198236 -.00364566  00000+0 -10809-1 0  9997
2 69765  51.8750 175.4342 0007817 157.0087 203.1250 15.35730104  2170
KUIPER-00569            
1 69766U 26151D   26197.29059535 -.00063528  00000+0 -17116-2 0  9995
2 69766  51.8783 175.0802 0005267 141.3377 218.7988 15.37349731  2184
